start=new Date('2022-12-03T00:00:00.000Z').valueOf();
sats=[{"TLE_LINE1":"1 50203U 21125AZ  22336.76412197  .00011978  00000-0  77046-3 0  9997","MEAN_ELEMENT_THEORY":"SGP4","REV_AT_EPOCH":"5670","TLE_LINE2":"2 50203  53.2162 194.3870 0002620  36.3113 323.8057 15.08789414 56703","MEAN_MOTION_DOT":"0.00011978","FILE":"3679625","COUNTRY_CODE":"US","CENTER_NAME":"EARTH","ARG_OF_PERICENTER":"36.3113","PERIAPSIS":"538.087","OBJECT_ID":"2021-125AZ","RA_OF_ASC_NODE":"194.3870","PERIOD":"95.441","EPHEMERIS_TYPE":"0","SITE":"AFWTR","INCLINATION":"53.2162","MEAN_MOTION":"15.08789414","OBJECT_TYPE":"PAYLOAD","ECCENTRICITY":"0.00026200","ELEMENT_SET_NO":"999","CLASSIFICATION_TYPE":"U","REF_FRAME":"TEME","SEMIMAJOR_AXIS":"6918.035","MEAN_ANOMALY":"323.8057","RCS_SIZE":"LARGE","TIME_SYSTEM":"UTC","NORAD_CAT_ID":"50203","MEAN_MOTION_DDOT":"0.0000000000000","OBJECT_NAME":"STARLINK-3257","EPOCH":"2022-12-02T18:20:20.138208","GP_ID":"219382839","LAUNCH_DATE":"2021-12-18","APOAPSIS":"541.713","DECAY_DATE":null,"BSTAR":"0.00077046000000"},{"BSTAR":"-0.00002372800000","MEAN_MOTION_DDOT":"0.0000000000000","OBJECT_NAME":"STARLINK-3254","DECAY_DATE":null,"LAUNCH_DATE":"2021-12-18","APOAPSIS":"541.735","GP_ID":"219383590","EPOCH":"2022-12-02T17:53:49.183296","SEMIMAJOR_AXIS":"6917.897","NORAD_CAT_ID":"50204","TIME_SYSTEM":"UTC","RCS_SIZE":"LARGE","MEAN_ANOMALY":"324.9049","ECCENTRICITY":"0.00028520","ELEMENT_SET_NO":"999","MEAN_MOTION":"15.08834707","OBJECT_TYPE":"PAYLOAD","REF_FRAME":"TEME","CLASSIFICATION_TYPE":"U","EPHEMERIS_TYPE":"0","PERIOD":"95.438","INCLINATION":"53.2165","SITE":"AFWTR","ARG_OF_PERICENTER":"35.2131","RA_OF_ASC_NODE":"194.4692","PERIAPSIS":"537.789","OBJECT_ID":"2021-125BA","CENTER_NAME":"EARTH","TLE_LINE2":"2 50204  53.2165 194.4692 0002852  35.2131 324.9049 15.08834707 56692","MEAN_MOTION_DOT":"-0.00000666","REV_AT_EPOCH":"5669","MEAN_ELEMENT_THEORY":"SGP4","TLE_LINE1":"1 50204U 21125BA  22336.74570814 -.00000666  00000-0 -23728-4 0  9990","COUNTRY_CODE":"US","FILE":"3679625"},{"COUNTRY_CODE":"US","FILE":"3679625","TLE_LINE2":"2 50205  53.2167 164.1306 0003162  42.8803 317.2435 15.08836626 57075","REV_AT_EPOCH":"5707","MEAN_MOTION_DOT":"-0.00000715","MEAN_ELEMENT_THEORY":"SGP4","TLE_LINE1":"1 50205U 21125BB  22336.81936338 -.00000715  00000-0 -26806-4 0  9991","CENTER_NAME":"EARTH","RA_OF_ASC_NODE":"164.1306","PERIAPSIS":"537.568","OBJECT_ID":"2021-125BB","ARG_OF_PERICENTER":"42.8803","INCLINATION":"53.2167","SITE":"AFWTR","EPHEMERIS_TYPE":"0","PERIOD":"95.438","REF_FRAME":"TEME","CLASSIFICATION_TYPE":"U","ECCENTRICITY":"0.00031620","ELEMENT_SET_NO":"999","MEAN_MOTION":"15.08836626","OBJECT_TYPE":"PAYLOAD","NORAD_CAT_ID":"50205","TIME_SYSTEM":"UTC","MEAN_ANOMALY":"317.2435","RCS_SIZE":"LARGE","SEMIMAJOR_AXIS":"6917.891","DECAY_DATE":null,"APOAPSIS":"541.943","LAUNCH_DATE":"2021-12-18","GP_ID":"219382338","EPOCH":"2022-12-02T19:39:52.996032","MEAN_MOTION_DDOT":"0.0000000000000","OBJECT_NAME":"STARLINK-3260","BSTAR":"-0.00002680600000"},{"PERIAPSIS":"537.277","OBJECT_ID":"2021-125BC","RA_OF_ASC_NODE":"194.4543","ARG_OF_PERICENTER":"34.4524","INCLINATION":"53.2168","SITE":"AFWTR","EPHEMERIS_TYPE":"0","PERIOD":"95.437","FILE":"3679625","COUNTRY_CODE":"US","TLE_LINE1":"1 50206U 21125BC  22336.74937877  .00000530  00000-0  51463-4 0  9993","MEAN_MOTION_DOT":"0.00000530","TLE_LINE2":"2 50206  53.2168 194.4543 0003537  34.4524 325.6697 15.08846895 54562","REV_AT_EPOCH":"5456","MEAN_ELEMENT_THEORY":"SGP4","CENTER_NAME":"EARTH","GP_ID":"219382588","EPOCH":"2022-12-02T17:59:06.325728","DECAY_DATE":null,"LAUNCH_DATE":"2021-12-18","APOAPSIS":"542.171","MEAN_MOTION_DDOT":"0.0000000000000","OBJECT_NAME":"STARLINK-3258","BSTAR":"0.00005146300000","REF_FRAME":"TEME","CLASSIFICATION_TYPE":"U","OBJECT_TYPE":"PAYLOAD","MEAN_MOTION":"15.08846895","ELEMENT_SET_NO":"999","ECCENTRICITY":"0.00035370","MEAN_ANOMALY":"325.6697","RCS_SIZE":"LARGE","NORAD_CAT_ID":"50206","TIME_SYSTEM":"UTC","SEMIMAJOR_AXIS":"6917.859"},{"MEAN_MOTION":"15.08850456","OBJECT_TYPE":"PAYLOAD","ELEMENT_SET_NO":"999","ECCENTRICITY":"0.00034730","CLASSIFICATION_TYPE":"U","REF_FRAME":"TEME","SEMIMAJOR_AXIS":"6917.848","MEAN_ANOMALY":"325.6183","RCS_SIZE":"LARGE","TIME_SYSTEM":"UTC","NORAD_CAT_ID":"50207","MEAN_MOTION_DDOT":"0.0000000000000","OBJECT_NAME":"STARLINK-3262","EPOCH":"2022-12-02T19:39:47.356704","GP_ID":"219383340","APOAPSIS":"542.116","LAUNCH_DATE":"2021-12-18","DECAY_DATE":null,"BSTAR":"-0.00000930610000","TLE_LINE1":"1 50207U 21125BD  22336.81929811 -.00000437  00000-0 -93061-5 0  9990","MEAN_ELEMENT_THEORY":"SGP4","MEAN_MOTION_DOT":"-0.00000437","TLE_LINE2":"2 50207  53.2134 194.1356 0003473  34.5034 325.6183 15.08850456 54648","REV_AT_EPOCH":"5464","FILE":"3679625","COUNTRY_CODE":"US","CENTER_NAME":"EARTH","ARG_OF_PERICENTER":"34.5034","PERIAPSIS":"537.311","OBJECT_ID":"2021-125BD","RA_OF_ASC_NODE":"194.1356","PERIOD":"95.437","EPHEMERIS_TYPE":"0","SITE":"AFWTR","INCLINATION":"53.2134"},{"BSTAR":"0.00006730500000","MEAN_MOTION_DDOT":"0.0000000000000","OBJECT_NAME":"STARLINK-3321","DECAY_DATE":null,"LAUNCH_DATE":"2022-01-06","APOAPSIS":"541.688","GP_ID":"219383111","EPOCH":"2022-12-02T19:17:16.919520","SEMIMAJOR_AXIS":"6917.871","NORAD_CAT_ID":"50803","TIME_SYSTEM":"UTC","RCS_SIZE":"LARGE","MEAN_ANOMALY":"311.7104","ECCENTRICITY":"0.00028210","ELEMENT_SET_NO":"999","OBJECT_TYPE":"PAYLOAD","MEAN_MOTION":"15.08842997","CLASSIFICATION_TYPE":"U","REF_FRAME":"TEME","EPHEMERIS_TYPE":"0","PERIOD":"95.437","INCLINATION":"53.2178","SITE":"AFETR","ARG_OF_PERICENTER":"48.4130","RA_OF_ASC_NODE":"124.1970","PERIAPSIS":"537.785","OBJECT_ID":"2022-001A","CENTER_NAME":"EARTH","TLE_LINE2":"2 50803  53.2178 124.1970 0002821  48.4130 311.7104 15.08842997 50321","REV_AT_EPOCH":"5032","MEAN_MOTION_DOT":"0.00000783","MEAN_ELEMENT_THEORY":"SGP4","TLE_LINE1":"1 50803U 22001A   22336.80366805  .00000783  00000-0  67305-4 0  9996","COUNTRY_CODE":"US","FILE":"3679625"},{"RA_OF_ASC_NODE":"114.3533","OBJECT_ID":"2022-001B","PERIAPSIS":"538.330","ARG_OF_PERICENTER":"54.7037","INCLINATION":"53.2180","SITE":"AFETR","PERIOD":"95.437","EPHEMERIS_TYPE":"0","COUNTRY_CODE":"US","FILE":"3679625","MEAN_ELEMENT_THEORY":"SGP4","MEAN_MOTION_DOT":"0.00000952","TLE_LINE2":"2 50804  53.2180 114.3533 0002039  54.7037 305.4145 15.08841654 50456","REV_AT_EPOCH":"5045","TLE_LINE1":"1 50804U 22001B   22336.77145761  .00000952  00000-0  77886-4 0  9992","CENTER_NAME":"EARTH","APOAPSIS":"541.151","LAUNCH_DATE":"2022-01-06","DECAY_DATE":null,"EPOCH":"2022-12-02T18:30:53.937504","GP_ID":"219381860","MEAN_MOTION_DDOT":"0.0000000000000","OBJECT_NAME":"STARLINK-3323","BSTAR":"0.00007788600000","REF_FRAME":"TEME","CLASSIFICATION_TYPE":"U","ELEMENT_SET_NO":"999","ECCENTRICITY":"0.00020390","OBJECT_TYPE":"PAYLOAD","MEAN_MOTION":"15.08841654","TIME_SYSTEM":"UTC","NORAD_CAT_ID":"50804","MEAN_ANOMALY":"305.4145","RCS_SIZE":"LARGE","SEMIMAJOR_AXIS":"6917.875"},{"MEAN_MOTION_DOT":"0.00001792","TLE_LINE2":"2 50805  53.2171 116.1507 0002172  48.2509 311.8668 15.08838175 51667","REV_AT_EPOCH":"5166","MEAN_ELEMENT_THEORY":"SGP4","TLE_LINE1":"1 50805U 22001C   22336.37033985  .00001792  00000-0  13066-3 0  9995","COUNTRY_CODE":"US","FILE":"3679001","CENTER_NAME":"EARTH","ARG_OF_PERICENTER":"48.2509","RA_OF_ASC_NODE":"116.1507","OBJECT_ID":"2022-001C","PERIAPSIS":"538.248","EPHEMERIS_TYPE":"0","PERIOD":"95.438","INCLINATION":"53.2171","SITE":"AFETR","ELEMENT_SET_NO":"999","ECCENTRICITY":"0.00021720","MEAN_MOTION":"15.08838175","OBJECT_TYPE":"PAYLOAD","CLASSIFICATION_TYPE":"U","REF_FRAME":"TEME","SEMIMAJOR_AXIS":"6917.886","NORAD_CAT_ID":"50805","TIME_SYSTEM":"UTC","MEAN_ANOMALY":"311.8668","RCS_SIZE":"LARGE","OBJECT_NAME":"STARLINK-3333","MEAN_MOTION_DDOT":"0.0000000000000","DECAY_DATE":null,"APOAPSIS":"541.254","LAUNCH_DATE":"2022-01-06","GP_ID":"219321889","EPOCH":"2022-12-02T08:53:17.363040","BSTAR":"0.00013066000000"},{"PERIAPSIS":"538.055","OBJECT_ID":"2022-001D","RA_OF_ASC_NODE":"115.8457","ARG_OF_PERICENTER":"52.1890","INCLINATION":"53.2173","SITE":"AFETR","EPHEMERIS_TYPE":"0","PERIOD":"95.438","FILE":"3679245","COUNTRY_CODE":"US","TLE_LINE1":"1 50806U 22001D   22336.43290520 -.00001394  00000-0 -69500-4 0  9998","TLE_LINE2":"2 50806  53.2173 115.8457 0002466  52.1890 307.9325 15.08834929 50403","REV_AT_EPOCH":"5040","MEAN_MOTION_DOT":"-0.00001394","MEAN_ELEMENT_THEORY":"SGP4","CENTER_NAME":"EARTH","GP_ID":"219351997","EPOCH":"2022-12-02T10:23:23.009280","DECAY_DATE":null,"APOAPSIS":"541.467","LAUNCH_DATE":"2022-01-06","OBJECT_NAME":"STARLINK-3335","MEAN_MOTION_DDOT":"0.0000000000000","BSTAR":"-0.00006950000000","CLASSIFICATION_TYPE":"U","REF_FRAME":"TEME","MEAN_MOTION":"15.08834929","OBJECT_TYPE":"PAYLOAD","ECCENTRICITY":"0.00024660","ELEMENT_SET_NO":"999","RCS_SIZE":"LARGE","MEAN_ANOMALY":"307.9325","NORAD_CAT_ID":"50806","TIME_SYSTEM":"UTC","SEMIMAJOR_AXIS":"6917.896"},{"RA_OF_ASC_NODE":"115.9379","PERIAPSIS":"538.294","OBJECT_ID":"2022-001E","ARG_OF_PERICENTER":"35.9344","INCLINATION":"53.2161","SITE":"AFETR","PERIOD":"95.438","EPHEMERIS_TYPE":"0","COUNTRY_CODE":"US","FILE":"3679245","MEAN_ELEMENT_THEORY":"SGP4","MEAN_MOTION_DOT":"0.00000258","TLE_LINE2":"2 50807  53.2161 115.9379 0002105  35.9344 324.1790 15.08838488 50409","REV_AT_EPOCH":"5040","TLE_LINE1":"1 50807U 22001E   22336.41817050  .00000258  00000-0  34330-4 0  9999","CENTER_NAME":"EARTH","APOAPSIS":"541.206","LAUNCH_DATE":"2022-01-06","DECAY_DATE":null,"EPOCH":"2022-12-02T10:02:09.931200","GP_ID":"219350247","OBJECT_NAME":"STARLINK-3353","MEAN_MOTION_DDOT":"0.0000000000000","BSTAR":"0.00003433000000","REF_FRAME":"TEME","CLASSIFICATION_TYPE":"U","ELEMENT_SET_NO":"999","ECCENTRICITY":"0.00021050","OBJECT_TYPE":"PAYLOAD","MEAN_MOTION":"15.08838488","TIME_SYSTEM":"UTC","NORAD_CAT_ID":"50807","RCS_SIZE":"LARGE","MEAN_ANOMALY":"324.1790","SEMIMAJOR_AXIS":"6917.885"}];
